[{"OBJECT_NAME":"SPARK 2","OBJECT_ID":"2016-081D","EPOCH":"2026-03-09T21:43:21.567936","MEAN_MOTION":14.59036805,"ECCENTRICITY":0.00241409,"INCLINATION":98.5438,"RA_OF_ASC_NODE":55.7698,"ARG_OF_PERICENTER":270.8992,"MEAN_ANOMALY":88.944,"EPHEMERIS_TYPE":0,"CLASSIFICATION_TYPE":"U","NORAD_CAT_ID":41901,"ELEMENT_SET_NO":999,"REV_AT_EPOCH":48964,"BSTAR":0.00022054708,"MEAN_MOTION_DOT":9.9e-6,"MEAN_MOTION_DDOT":0},{"OBJECT_NAME":"ASO-S","OBJECT_ID":"2022-129A","EPOCH":"2026-03-09T22:56:02.207040","MEAN_MOTION":14.52012554,"ECCENTRICITY":0.00151338,"INCLINATION":98.2779,"RA_OF_ASC_NODE":75.4501,"ARG_OF_PERICENTER":41.7143,"MEAN_ANOMALY":318.5203,"EPHEMERIS_TYPE":0,"CLASSIFICATION_TYPE":"U","NORAD_CAT_ID":54029,"ELEMENT_SET_NO":999,"REV_AT_EPOCH":18102,"BSTAR":8.1391382e-5,"MEAN_MOTION_DOT":2.85e-6,"MEAN_MOTION_DDOT":0}]
